SHIYAN-30 04            
1 68140U 26048B   26085.77305151  .00002225  00000+0  21953-3 0  9992
2 68140  34.9925  41.6832 0001965 338.1246  21.9375 14.91720059  2057
CZ-2D R/B               
1 68141U 26048C   26085.94023887  .00001538  00000+0  13858-3 0  9996
2 68141  35.1303  40.5103 0014966 117.2366 242.9869 14.95554078  2080
STARLINK-36604          
1 68142U 26049A   26085.83336806 -.00069359  00000+0 -36382-3 0  9998
2 68142  97.2837 105.9037 0001228 109.9880 322.9152 15.80841046  3387
STARLINK-36995          
1 68143U 26049B   26085.83336806 -.00075022  00000+0 -39381-3 0  9995
2 68143  97.2837 105.9053 0001401 111.7748 325.4038 15.80842359  3371
STARLINK-37020          
1 68144U 26049C   26085.25002315 -.00031933  00000+0 -16664-3 0  9999
2 68144  97.2839 105.2924 0000915 102.5459 265.6625 15.80809277  3289
STARLINK-36244          
1 68145U 26049D   26085.83336806 -.01951204  00000+0 -11799-1 0  9994
2 68145  97.2840 105.9129 0001723  88.9951   5.2530 15.80632280  3380
STARLINK-36980          
1 68146U 26049E   26085.83336806 -.00064695  00000+0 -33913-3 0  9997
2 68146  97.2838 105.9107 0001850 119.0137 330.9846 15.80838521  3370
STARLINK-37055          
1 68147U 26049F   26085.83336806 -.00035987  00000+0 -18786-3 0  9991
2 68147  97.2838 105.9067 0001433 110.9299 330.5297 15.80821209  3373
STARLINK-36981          
1 68148U 26049G   26085.83336806 -.00077871  00000+0 -40893-3 0  9994
2 68148  97.2839 105.9143 0001704 105.0658 353.4831 15.80841165  3376
STARLINK-36992          
1 68149U 26049H   26085.83336806 -.00127304  00000+0 -67210-3 0  9994
2 68149  97.2839 105.9156 0001306  58.7779  44.0454 15.80864479  3374
STARLINK-37060          
1 68150U 26049J   26085.83336806 -.00094499  00000+0 -49731-3 0  9992
2 68150  97.2839 105.9180 0001470  74.4321  32.6698 15.80843743  3377
STARLINK-37073          
1 68151U 26049K   26085.83336806 -.00082887  00000+0 -43555-3 0  9999
2 68151  97.2839 105.9193 0001416 115.7639 355.6099 15.80842896  3374
STARLINK-37049          
1 68152U 26049L   26085.83336806 -.00043599  00000+0 -22783-3 0  9997
2 68152  97.2839 105.9212 0001424  95.8287  19.8070 15.80832801  3376
STARLINK-37072          
1 68153U 26049M   26085.83336806 -.00052549  00000+0 -27504-3 0  9999
2 68153  97.2840 105.9225 0001460 108.1671  11.7505 15.80832204  3379
STARLINK-36241          
1 68154U 26049N   26085.83336806 -.01918227  00000+0 -13003-1 0  9992
2 68154  97.2838 105.9263 0001862  74.0329  51.2101 15.78071219  3386
STARLINK-37048          
1 68155U 26049P   26085.83336806 -.00054609  00000+0 -28587-3 0  9992
2 68155  97.2847 105.9310 0001045  88.2048  48.8138 15.80837268  3376
STARLINK-36313          
1 68156U 26049Q   26085.83336806 -.00097495  00000+0 -51326-3 0  9990
2 68156  97.2843 105.9273 0001391 129.7438   3.0066 15.80844784  3384
STARLINK-37064          
1 68157U 26049R   26085.83336806 -.00063094  00000+0 -33083-3 0  9999
2 68157  97.2841 105.9238 0000789  99.6473  24.5541 15.80830305  3377
STARLINK-37069          
1 68158U 26049S   26085.83336806 -.01925070  00000+0 -12702-1 0  9995
2 68158  97.2838 105.9334 0001769  85.7639  57.8319 15.78680733  3377
STARLINK-37053          
1 68159U 26049T   26085.83336806 -.00047827  00000+0 -25022-3 0  9991
2 68159  97.2838 105.9343 0001157 114.1581  35.6855 15.80824494  3378
STARLINK-36306          
1 68160U 26049U   26085.83336806 -.01592861  00000+0 -93058-2 0  9990
2 68160  97.2842 105.9360 0002005 108.8291  45.2162 15.81241917  3388
STARLINK-37057          
1 68161U 26049V   26085.83336806 -.00062093  00000+0 -32542-3 0  9991
2 68161  97.2842 105.9312 0001590 124.8462  16.4405 15.80835957  3373
STARLINK-37013          
1 68162U 26049W   26085.83336806 -.00009528  00000+0 -49068-4 0  9998
2 68162  97.2837 105.9429 0001591  86.8657  84.3462 15.80809081  3377
STARLINK-36958          
1 68163U 26049X   26085.83336806 -.00063441  00000+0 -33262-3 0  9991
2 68163  97.2836 105.9399 0001368 106.6805  55.9853 15.80832034  3373
STARLINK-37002          
1 68164U 26049Y   26085.83336806 -.00045845  00000+0 -23952-3 0  9995
2 68164  97.2842 105.9388 0001414  76.1575  82.2067 15.80846605  3375
STARLINK-36971          
1 68165U 26049Z   26085.83336806 -.00036108  00000+0 -18852-3 0  9991
2 68165  97.2837 105.9418 0001186 106.8653  60.0739 15.80819006  3373
STARLINK-36273          
1 68166U 26049AA  26085.83336806 -.01916975  00000+0 -13117-1 0  9999
2 68166  97.2825 105.9440 0001798  83.4965  88.2413 15.77861138  3382
STARLINK-36969          
1 68167U 26050A   26085.75818780  .00227471  00000+0  11215-2 0  9990
2 68167  53.1593 196.3005 0001103 112.9867 247.1272 15.80958849  3172
STARLINK-36984          
1 68168U 26050B   26085.75743367  .00224195  00000+0  11061-2 0  9998
2 68168  53.1595 196.2957 0000349 150.6597 209.4445 15.80951452  3176
STARLINK-37077          
1 68169U 26050C   26085.75668744  .00222975  00000+0  10996-2 0  9994
2 68169  53.1596 196.2907 0000988  84.1630 275.9505 15.80965787  3172
STARLINK-37003          
1 68170U 26050D   26085.75593564  .00329480  00000+0  16004-2 0  9998
2 68170  53.1594 196.2853 0000890  79.1502 280.9621 15.81001705  3173
STARLINK-37034          
1 68171U 26050E   26085.75518470  .00221965  00000+0  10950-2 0  9995
2 68171  53.1596 196.2801 0000683  39.3338 320.7735 15.80961897  3179
STARLINK-37031          
1 68172U 26050F   26085.75443626  .00183609  00000+0  91114-3 0  9990
2 68172  53.1595 196.2748 0000684  98.0859 262.0241 15.80944521  3175
STARLINK-37076          
1 68173U 26050G   26085.75368838  .00207253  00000+0  10250-2 0  9995
2 68173  53.1596 196.2704 0001387  92.9614 267.1567 15.80949626  3170
STARLINK-37078          
1 68174U 26050H   26085.81614612  .00414927  00000+0  19880-2 0  9993
2 68174  53.1593 195.9482 0000840  71.0035 289.1079 15.81072028  3182
STARLINK-36886          
1 68175U 26050J   26085.75218647  .00214860  00000+0  10615-2 0  9996
2 68175  53.1593 196.2598 0000977 105.5576 254.5554 15.80949914  3178
STARLINK-36905          
1 68176U 26050K   26085.81464844  .00313274  00000+0  15232-2 0  9995
2 68176  53.1589 195.9370 0000762 146.6139 213.4932 15.81023302  3181
STARLINK-36668          
1 68177U 26050L   26085.81387858  .00455121  00000+0  21631-2 0  9993
2 68177  53.1592 195.9322 0000846 112.6170 247.4942 15.81141565  3184
STARLINK-36677          
1 68178U 26050M   26085.81314875  .00352450  00000+0  17062-2 0  9997
2 68178  53.1590 195.9272 0000575 179.1743 180.9281 15.81013723  3181
STARLINK-37052          
1 68179U 26050N   26085.81239951  .00329064  00000+0  15968-2 0  9997
2 68179  53.1593 195.9233 0000737 114.9615 245.1485 15.81025001  3189
STARLINK-37035          
1 68180U 26050P   26085.74843328  .00314964  00000+0  15328-2 0  9993
2 68180  53.1594 196.2350 0000323  59.0573 301.0482 15.80999319  3178
STARLINK-37032          
1 68181U 26050Q   26085.74768553  .00188711  00000+0  93575-3 0  9990
2 68181  53.1592 196.2296 0000853 105.2501 254.8616 15.80945685  3170
STARLINK-37082          
1 68182U 26050R   26085.74693763  .00187163  00000+0  92846-3 0  9991
2 68182  53.1593 196.2248 0001191  81.7316 278.3841 15.80941523  3175
STARLINK-37102          
1 68183U 26050S   26085.80939765  .00391317  00000+0  18822-2 0  9993
2 68183  53.1592 195.9028 0000455 102.1055 258.0019 15.81049786  3181
STARLINK-36964          
1 68184U 26050T   26085.80864992  .00286713  00000+0  14001-2 0  9991
2 68184  53.1589 195.8978 0000422 102.8600 257.2470 15.81000723  3188
STARLINK-37061          
1 68185U 26050U   26085.80790303  .00227975  00000+0  11232-2 0  9994
2 68185  53.1593 195.8929 0000741  94.5387 265.5721 15.80972928  3188
STARLINK-37079          
1 68186U 26050V   26085.80715107  .00252599  00000+0  12399-2 0  9999
2 68186  53.1596 195.8877 0000815  88.8084 271.3032 15.80983055  3189
STARLINK-37006          
1 68187U 26050W   26085.80639810  .00315060  00000+0  15322-2 0  9998
2 68187  53.1593 195.8831 0000439 125.8144 234.2919 15.81013939  3186
STARLINK-36340          
1 68188U 26050X   26085.80564863  .00274697  00000+0  13437-2 0  9999
2 68188  53.1591 195.8778 0000599 118.4865 241.6218 15.80997885  3083
STARLINK-36305          
1 68189U 26050Y   26085.80490023  .00222902  00000+0  10991-2 0  9990
2 68189  53.1591 195.8729 0001270 161.2674 198.8396 15.80969290  3080
STARLINK-37071          
1 68190U 26050Z   26085.80339747  .00216798  00000+0  10694-2 0  9993
2 68190  53.1593 195.8626 0000873 157.5942 202.5119 15.80978118  3180
STARLINK-37091          
1 68191U 26050AA  26085.80264844  .00311520  00000+0  15158-2 0  9998
2 68191  53.1590 195.8571 0000708  54.8014 305.3075 15.81012446  3180
STARLINK-37098          
1 68192U 26050AB  26085.80190064  .00287326  00000+0  14033-2 0  9998
2 68192  53.1594 195.8523 0001071  97.8005 262.3140 15.80997044  3183
STARLINK-37090          
1 68193U 26050AC  26085.80040504  .00452301  00000+0  21559-2 0  9990
2 68193  53.1589 195.8412 0001127 357.1760   2.9256 15.81086794  3185
STARLINK-37093          
1 68194U 26050AD  26085.80414618  .00252669  00000+0  12389-2 0  9998
2 68194  53.1596 195.8669 0000658  64.9159 295.1932 15.81007014  3186
STARLINK-37058          
1 68195U 26050AE  26085.80115061  .00278009  00000+0  13598-2 0  9998
2 68195  53.1591 195.8469 0000918 106.1273 253.9851 15.80990520  1626
YAOGAN-50 02            
1 68196U 26051A   26085.90804062  .00000265  00000+0  70915-4 0  9992
2 68196 141.9870 290.2461 0001063 242.9241 117.1370 13.83268265  1599
CZ-6A R/B               
1 68197U 26051B   26085.44575301  .00000982  00000+0  12005-3 0  9994
2 68197 142.0321 293.4840 0186333 171.2650 189.1378 14.56367185  1602
2026-052A               
1 68198U 26052A   26085.62264051  .00000448  00000+0  31529-4 0  9993
2 68198  97.5376 161.7059 0012977 225.7685 134.2480 15.09879016  1583
